CSS (TIANHE)            
1 48274U 21035A   26201.15025581  .00011348  00000+0  15004-3 0  9993
2 48274  41.4683 121.7978 0001915 306.7446  53.3216 15.58213113298317
